ONEWEB-0029             
1 45445U 20020X   25322.28531087  .00000409  00000+0  11183-2 0  9992
2 45445  87.8872  63.0589 0001685 107.8263 252.3049 13.11416625275012
ONEWEB-0068             
1 45446U 20020Y   25322.34536949  .00000397  00000+0  10831-2 0  9997
2 45446  87.8873  63.0359 0001682 107.2710 252.8602 13.11416407274968
ONEWEB-0046             
1 45447U 20020Z   25322.33702303  .00000176  00000+0  46145-3 0  9999
2 45447  87.8872  63.0456 0001479 109.3228 250.8060 13.11417859274976
ONEWEB-0063             
1 45448U 20020AA  25322.28954909  .00000240  00000+0  64242-3 0  9995
2 45448  87.8872  63.0531 0001410 102.7114 257.4171 13.11414656275055
ONEWEB-0019             
1 45449U 20020AB  25322.33955617  .00000259  00000+0  69531-3 0  9995
2 45449  87.8859  63.0553 0001733 102.6910 257.4412 13.11420799274902
ONEWEB-0094             
1 45450U 20020AC  25322.25224997  .00000070  00000+0  14608-3 0  9994
2 45450  87.9143  47.7781 0001718 102.9307 257.2017 13.17651720278537
ONEWEB-0087             
1 45451U 20020AD  25322.29957272 -.00000178  00000+0 -53910-3 0  9998
2 45451  87.8881  63.0068 0001835 112.1146 248.0177 13.11414011274949
ONEWEB-0082             
1 45452U 20020AE  25322.29632117 -.00000062  00000+0 -21115-3 0  9991
2 45452  87.8878  63.0328 0001786 109.6156 250.5165 13.11413834275030
ONEWEB-0050             
1 45453U 20020AF  25322.38606964 -.00008520  00000+0 -90312-3 0  9995
2 45453  88.9216 261.9673 0004970  49.8819 310.2844 14.89332753308996
ONEWEB-0034             
1 45454U 20020AG  25322.24121932 -.00000449  00000+0 -13029-2 0  9999
2 45454  87.8872  63.0606 0001662 103.3505 256.7808 13.11418357274943
ONEWEB-0060             
1 45455U 20020AH  25322.36500326  .00000189  00000+0  49848-3 0  9999
2 45455  87.8857  63.0556 0002463 123.7343 236.4020 13.11416507274910
ONEWEB-0086             
1 45456U 20020AJ  25322.34381400  .00000405  00000+0  11068-2 0  9991
2 45456  87.8870  63.0367 0002410 104.7028 255.4367 13.11416727274972
ONEWEB-0088             
1 45457U 20020AK  25322.24545387 -.00000273  00000+0 -80590-3 0  9999
2 45457  87.8884  63.0091 0001530 106.0400 254.0896 13.11417094274894
ONEWEB-0102             
1 47258U 20100A   25322.26279487  .00000340  00000+0  90905-3 0  9990
2 47258  87.8968  32.5894 0001789  94.7466 265.3867 13.12442252237067
ONEWEB-0109             
1 47259U 20100B   25322.27090066  .00000420  00000+0  11334-2 0  9993
2 47259  87.8965  32.5535 0002047 102.5155 257.6202 13.12441341236893
ONEWEB-0110             
1 47260U 20100C   25322.22060065 -.00000294  00000+0 -85391-3 0  9992
2 47260  87.8970  32.5489 0002053 103.5104 256.6254 13.12441910237058
ONEWEB-0111             
1 47261U 20100D   25322.25143248  .00000079  00000+0  18386-3 0  9990
2 47261  87.8970  32.5605 0001832  99.3143 260.8193 13.12442835236895
ONEWEB-0114             
1 47262U 20100E   25322.20600975  .00000211  00000+0  55110-3 0  9995
2 47262  87.8976  32.5643 0001685  90.9971 269.1351 13.12441623236843
ONEWEB-0117             
1 47263U 20100F   25322.19791051  .00000358  00000+0  96020-3 0  9997
2 47263  87.8972  32.5636 0001765 102.2219 257.9107 13.12441678236858
ONEWEB-0118             
1 47264U 20100G   25322.23034003 -.00000383  00000+0 -11011-2 0  9996
2 47264  87.8969  32.5560 0001393  90.3083 269.8206 13.12442337237052
ONEWEB-0119             
1 47265U 20100H   25322.25792326  .00000243  00000+0  64019-3 0  9998
2 47265  87.8971  32.5873 0001791  99.1247 261.0084 13.12441912237038
ONEWEB-0120             
1 47266U 20100J   25322.20452894  .00000180  00000+0  46633-3 0  9999
2 47266  87.8963  32.5992 0001730  97.3349 262.7976 13.12441450237055
ONEWEB-0121             
1 47267U 20100K   25322.26928241  .00000396  00000+0  10646-2 0  9993
2 47267  87.8975  32.5532 0001933 103.2231 256.9114 13.12441656236978
ONEWEB-0122             
1 47268U 20100L   25322.26427870  .00000398  00000+0  10711-2 0  9991
2 47268  87.8972  32.5568 0001958  98.0018 262.1333 13.12441857236881
ONEWEB-0123             
1 47269U 20100M   25322.18330662  .00000469  00000+0  12694-2 0  9996
2 47269  87.8970  32.6001 0001635 100.8918 259.2394 13.12441793237015
ONEWEB-0124             
1 47270U 20100N   25322.24818623  .00000011  00000+0 -52765-5 0  9993
2 47270  87.8971  32.5914 0001791 106.3022 253.8303 13.12442413236907
ONEWEB-0125             
1 47271U 20100P   25322.22546921 -.00000395  00000+0 -11342-2 0  9990
2 47271  87.8969  32.5577 0001554 106.8066 253.3233 13.12442019236965
ONEWEB-0126             
1 47272U 20100Q   25322.24670334  .00000005  00000+0 -22347-4 0  9995
2 47272  87.8970  32.5770 0001716  97.1478 262.9846 13.12442981237035
ONEWEB-0127             
1 47273U 20100R   25322.21249892 -.00000040  00000+0 -14652-3 0  9993
2 47273  87.8970  32.5948 0001797  96.8951 263.2382 13.12440819237053
ONEWEB-0128             
1 47274U 20100S   25322.23520764 -.00000366  00000+0 -10526-2 0  9992
2 47274  87.8959  32.6087 0002026  99.6915 260.4442 13.12442759237076
ONEWEB-0129             
1 47275U 20100T   25322.21411690 -.00000097  00000+0 -30385-3 0  9995
2 47275  87.8973  32.5637 0002074  67.4940 292.6408 13.12441110237009
ONEWEB-0130             
1 47276U 20100U   25322.24169711 -.00000069  00000+0 -22644-3 0  9991
2 47276  87.8970  32.5541 0001922  99.6977 260.4369 13.12442515236973
ONEWEB-0131             
1 47277U 20100V   25322.23845392 -.00000247  00000+0 -72069-3 0  9991
2 47277  87.8974  32.5848 0001833 101.6042 258.5292 13.12442785237014
ONEWEB-0132             
1 47278U 20100W   25322.26765821  .00000436  00000+0  11774-2 0  9996
2 47278  87.8973  32.5808 0001831 101.0424 259.0911 13.12441671236911
ONEWEB-0133             
1 47279U 20100X   25322.28373962  .00000067  00000+0  15137-3 0  9998
2 47279  87.8963  32.5406 0001912 103.4827 256.6515 13.12440193237077
ONEWEB-0134             
1 47280U 20100Y   25322.25306061  .00000225  00000+0  58923-3 0  9999
2 47280  87.8972  32.5403 0002039  96.6313 263.5048 13.12442957237045
ONEWEB-0135             
1 47281U 20100Z   25322.22385161 -.00000320  00000+0 -92580-3 0  9990
2 47281  87.8968  32.5861 0002215  98.8517 261.2863 13.12442081237065
ONEWEB-0136             
1 47282U 20100AA  25322.24331971 -.00000144  00000+0 -43670-3 0  9993
2 47282  87.8972  32.5513 0002095  93.3235 266.8133 13.12442890236998
ONEWEB-0137             
1 47283U 20100AB  25322.27738506  .00000326  00000+0  87113-3 0  9992
2 47283  87.8972  32.5504 0001611  98.2068 261.9243 13.12441166236904
ONEWEB-0138             
1 47284U 20100AC  25322.25630045  .00000332  00000+0  88728-3 0  9990
2 47284  87.8973  32.5640 0002028  97.7916 262.3442 13.12442238236981
ONEWEB-0139             
1 47285U 20100AD  25322.21913221 -.00000258  00000+0 -75291-3 0  9997
2 47285  87.8966  32.5605 0001831 100.4176 259.7159 13.12443516237050
ONEWEB-0140             
1 47286U 20100AE  25322.24981032  .00000034  00000+0  59852-4 0  9992
2 47286  87.8970  32.5409 0001895  98.0364 262.0979 13.12442762237025
ONEWEB-0141             
1 47287U 20100AF  25322.21885214 -.00000222  00000+0 -65175-3 0  9990
2 47287  87.8963  32.5577 0001508  96.9517 263.1783 13.12442428237004
ONEWEB-0142             
1 47288U 20100AG  25322.20777697  .00000109  00000+0  26899-3 0  9997
2 47288  87.8970  32.5817 0001543  89.4273 270.7032 13.12441268236994
ONEWEB-0143             
1 47289U 20100AH  25322.21736258 -.00000252  00000+0 -73473-3 0  9998
2 47289  87.8967  32.5756 0001750 102.0251 258.1074 13.12442692236977
ONEWEB-0144             
1 47290U 20100AJ  25322.18980231  .00000480  00000+0  13000-2 0  9998
2 47290  87.8962  32.5511 0001916  90.0874 270.0474 13.12442648236893
ONEWEB-0145             
1 47291U 20100AK  25322.23682921 -.00000360  00000+0 -10353-2 0  9997
2 47291  87.8972  32.5786 0001762  98.0310 262.1019 13.12442526237096
ONEWEB-0146             
1 47292U 20100AL  25322.23358481 -.00000340  00000+0 -98032-3 0  9998
2 47292  87.8972  32.5661 0001895 111.0908 249.0423 13.12442288237004
ONEWEB-0147             
1 47293U 20100AM  25322.19952630  .00000335  00000+0  89545-3 0  9991
2 47293  87.8974  32.5508 0002058  97.8297 262.3065 13.12441387236896
ONEWEB-0115             
1 48042U 21025A   25322.16378198  .00000057  00000+0  12148-3 0  9995
2 48042  87.9011   2.1580 0001843  97.8358 262.2981 13.13470535225896
ONEWEB-0152             
1 48043U 21025B   25322.17731963  .00000378  00000+0  99923-3 0  9992
2 48043  87.9002   2.1647 0001898 100.6038 259.5305 13.13469066225851
ONEWEB-0153             
1 48044U 21025C   25322.15531073 -.00000083  00000+0 -26222-3 0  9998
2 48044  87.9011   2.1729 0001805  95.6015 264.5320 13.13469971225846
ONEWEB-0154             
1 48045U 21025D   25322.15193075  .00000218  00000+0  56157-3 0  9993
2 48045  87.9009   2.1701 0002977 108.2407 251.9046 13.13466499225804
ONEWEB-0116             
1 48046U 21025E   25322.49558046  .00000302  00000+0  79187-3 0  9996
2 48046  87.9013   2.0856 0001892 101.0754 259.0588 13.13469218225993
ONEWEB-0150             
1 48047U 21025F   25322.47187163 -.00000005  00000+0 -49004-4 0  9991
2 48047  87.9013   2.0855 0001642  96.2681 263.8635 13.13469120225886
ONEWEB-0107             
1 48048U 21025G   25322.16886130  .00000235  00000+0  60910-3 0  9999
2 48048  87.9012   2.1425 0001823  88.2587 271.8750 13.13469831225827
ONEWEB-0101             
1 48049U 21025H   25322.13161725 -.00000080  00000+0 -25328-3 0  9997
2 48049  87.9009   2.1854 0001915  93.0244 267.1105 13.13469219225794
ONEWEB-0113             
1 48050U 21025J   25322.15754300 -.00000079  00000+0 -24853-3 0  9998
2 48050  87.9008   2.1117 0001726 104.0753 256.0568 13.13983289225894
ONEWEB-0112             
1 48051U 21025K   25322.47864642 -.00001866  00000+0 -51434-2 0  9994
2 48051  87.9006   2.0778 0001975  89.0361 271.0995 13.13482581225933
